[
    {
        "Altitude(m)": 702822.4146542026,
        "Argument of Periapsis(deg)": 0.009112096949301655,
        "Eccentricity": 0.0,
        "Inclination(deg)": 45.0,
        "Latitude(deg)": 6.4945459895540605,
        "Longitude(deg)": 45.88836441550237,
        "Mean Anomaly(deg)": 9.226573317984654,
        "RAAN(deg)": 139.99139844683344,
        "Satellite Name": "Constellation 1 616",
        "Satellite Number": 616,
        "Semi-Major Axis(m)": 7083131.272910544,
        "Time(s)": 152
    },
    {
        "Altitude(m)": 702819.9488294229,
        "Argument of Periapsis(deg)": 0.009172044955547059,
        "Eccentricity": 0.0,
        "Inclination(deg)": 45.0,
        "Latitude(deg)": 6.537485476704361,
        "Longitude(deg)": 45.927677418280034,
        "Mean Anomaly(deg)": 9.287274458234565,
        "RAAN(deg)": 139.9913418576679,
        "Satellite Name": "Constellation 1 616",
        "Satellite Number": 616,
        "Semi-Major Axis(m)": 7083131.272910544,
        "Time(s)": 153
    },
    {
        "Altitude(m)": 702817.5035596439,
        "Argument of Periapsis(deg)": 0.009231992961792466,
        "Eccentricity": 0.0,
        "Inclination(deg)": 45.0,
        "Latitude(deg)": 6.580421195907096,
        "Longitude(deg)": 45.96699787752968,
        "Mean Anomaly(deg)": 9.347975598484451,
        "RAAN(deg)": 139.99128526850228,
        "Satellite Name": "Constellation 1 616",
        "Satellite Number": 616,
        "Semi-Major Axis(m)": 7083131.272910544,
        "Time(s)": 154
    },
    {
        "Altitude(m)": 702815.0788371816,
        "Argument of Periapsis(deg)": 0.009291940968037872,
        "Eccentricity": 0.0,
        "Inclination(deg)": 45.0,
        "Latitude(deg)": 6.623353121118901,
        "Longitude(deg)": 46.00632584284183,
        "Mean Anomaly(deg)": 9.408676738734364,
        "RAAN(deg)": 139.99122867933673,
        "Satellite Name": "Constellation 1 616",
        "Satellite Number": 616,
        "Semi-Major Axis(m)": 7083131.272910544,
        "Time(s)": 155
    },
    {
        "Altitude(m)": 702812.6746542534,
        "Argument of Periapsis(deg)": 0.009351888974283276,
        "Eccentricity": 0.0,
        "Inclination(deg)": 45.0,
        "Latitude(deg)": 6.666281226281646,
        "Longitude(deg)": 46.04566119572616,
        "Mean Anomaly(deg)": 9.469377878984275,
        "RAAN(deg)": 139.99117209017115,
        "Satellite Name": "Constellation 1 616",
        "Satellite Number": 616,
        "Semi-Major Axis(m)": 7083131.272910544,
        "Time(s)": 156
    },
    {
        "Altitude(m)": 702810.2910029998,
        "Argument of Periapsis(deg)": 0.00941183698052868,
        "Eccentricity": 0.0,
        "Inclination(deg)": 45.0,
        "Latitude(deg)": 6.709205485323515,
        "Longitude(deg)": 46.08500432200013,
        "Mean Anomaly(deg)": 9.530079019234163,
        "RAAN(deg)": 139.9911155010056,
        "Satellite Name": "Constellation 1 616",
        "Satellite Number": 616,
        "Semi-Major Axis(m)": 7083131.272910544,
        "Time(s)": 157
    },
    {
        "Altitude(m)": 702807.927875455,
        "Argument of Periapsis(deg)": 0.009471784986774088,
        "Eccentricity": 0.0,
        "Inclination(deg)": 45.0,
        "Latitude(deg)": 6.75212587215734,
        "Longitude(deg)": 46.124355103206554,
        "Mean Anomaly(deg)": 9.590780159484074,
        "RAAN(deg)": 139.99105891184004,
        "Satellite Name": "Constellation 1 616",
        "Satellite Number": 616,
        "Semi-Major Axis(m)": 7083131.272910544,
        "Time(s)": 158
    },
    {
        "Altitude(m)": 702805.5852635804,
        "Argument of Periapsis(deg)": 0.009531732993019492,
        "Eccentricity": 0.0,
        "Inclination(deg)": 45.0,
        "Latitude(deg)": 6.795042360681489,
        "Longitude(deg)": 46.163713589002,
        "Mean Anomaly(deg)": 9.651481299733936,
        "RAAN(deg)": 139.99100232267443,
        "Satellite Name": "Constellation 1 616",
        "Satellite Number": 616,
        "Semi-Major Axis(m)": 7083131.272910544,
        "Time(s)": 159
    },
    {
        "Altitude(m)": 702803.2631592372,
        "Argument of Periapsis(deg)": 0.009591680999264898,
        "Eccentricity": 0.0,
        "Inclination(deg)": 45.0,
        "Latitude(deg)": 6.837954924779598,
        "Longitude(deg)": 46.203079829059924,
        "Mean Anomaly(deg)": 9.712182439983847,
        "RAAN(deg)": 139.99094573350888,
        "Satellite Name": "Constellation 1 616",
        "Satellite Number": 616,
        "Semi-Major Axis(m)": 7083131.272910544,
        "Time(s)": 160
    },
    {
        "Altitude(m)": 702800.9615541926,
        "Argument of Periapsis(deg)": 0.009651629005510304,
        "Eccentricity": 0.0,
        "Inclination(deg)": 45.0,
        "Latitude(deg)": 6.880863538320368,
        "Longitude(deg)": 46.242453873070495,
        "Mean Anomaly(deg)": 9.772883580233733,
        "RAAN(deg)": 139.9908891443433,
        "Satellite Name": "Constellation 1 616",
        "Satellite Number": 616,
        "Semi-Major Axis(m)": 7083131.272910544,
        "Time(s)": 161
    },
    {
        "Altitude(m)": 702798.6804401443,
        "Argument of Periapsis(deg)": 0.00971157701175571,
        "Eccentricity": 0.0,
        "Inclination(deg)": 45.0,
        "Latitude(deg)": 6.923768175157525,
        "Longitude(deg)": 46.28183577074098,
        "Mean Anomaly(deg)": 9.833584720483644,
        "RAAN(deg)": 139.99083255517775,
        "Satellite Name": "Constellation 1 616",
        "Satellite Number": 616,
        "Semi-Major Axis(m)": 7083131.272910544,
        "Time(s)": 162
    },
    {
        "Altitude(m)": 702796.4198086733,
        "Argument of Periapsis(deg)": 0.009771525018001118,
        "Eccentricity": 0.0,
        "Inclination(deg)": 45.0,
        "Latitude(deg)": 6.9666688091294935,
        "Longitude(deg)": 46.3212254036986,
        "Mean Anomaly(deg)": 9.894285860733532,
        "RAAN(deg)": 139.99077596601217,
        "Satellite Name": "Constellation 1 616",
        "Satellite Number": 616,
        "Semi-Major Axis(m)": 7083131.272910544,
        "Time(s)": 163
    },
    {
        "Altitude(m)": 702794.1796512922,
        "Argument of Periapsis(deg)": 0.00983147302424652,
        "Eccentricity": 0.0,
        "Inclination(deg)": 45.0,
        "Latitude(deg)": 7.009565414060282,
        "Longitude(deg)": 46.360623157879,
        "Mean Anomaly(deg)": 9.954987000983444,
        "RAAN(deg)": 139.99071937684658,
        "Satellite Name": "Constellation 1 616",
        "Satellite Number": 616,
        "Semi-Major Axis(m)": 7083131.272910544,
        "Time(s)": 164
    },
    {
        "Altitude(m)": 702791.9599594168,
        "Argument of Periapsis(deg)": 0.009891421030491928,
        "Eccentricity": 0.0,
        "Inclination(deg)": 45.0,
        "Latitude(deg)": 7.052457963757834,
        "Longitude(deg)": 46.40002891494378,
        "Mean Anomaly(deg)": 10.015688141233356,
        "RAAN(deg)": 139.990662787681,
        "Satellite Name": "Constellation 1 616",
        "Satellite Number": 616,
        "Semi-Major Axis(m)": 7083131.272910544,
        "Time(s)": 165
    },
    {
        "Altitude(m)": 702789.7607243692,
        "Argument of Periapsis(deg)": 0.009951369036737332,
        "Eccentricity": 0.0,
        "Inclination(deg)": 45.0,
        "Latitude(deg)": 7.095346432015033,
        "Longitude(deg)": 46.439442724669135,
        "Mean Anomaly(deg)": 10.076389281483243,
        "RAAN(deg)": 139.99060619851545,
        "Satellite Name": "Constellation 1 616",
        "Satellite Number": 616,
        "Semi-Major Axis(m)": 7083131.272910544,
        "Time(s)": 166
    },
    {
        "Altitude(m)": 702787.5819373915,
        "Argument of Periapsis(deg)": 0.010011317042982738,
        "Eccentricity": 0.0,
        "Inclination(deg)": 45.0,
        "Latitude(deg)": 7.138230792609281,
        "Longitude(deg)": 46.47886463684858,
        "Mean Anomaly(deg)": 10.137090421733154,
        "RAAN(deg)": 139.9905496093499,
        "Satellite Name": "Constellation 1 616",
        "Satellite Number": 616,
        "Semi-Major Axis(m)": 7083131.272910544,
        "Time(s)": 167
    },
    {
        "Altitude(m)": 702785.4235896262,
        "Argument of Periapsis(deg)": 0.010071265049228144,
        "Eccentricity": 0.0,
        "Inclination(deg)": 45.0,
        "Latitude(deg)": 7.181111019302441,
        "Longitude(deg)": 46.51829470129328,
        "Mean Anomaly(deg)": 10.197791561983042,
        "RAAN(deg)": 139.99049302018432,
        "Satellite Name": "Constellation 1 616",
        "Satellite Number": 616,
        "Semi-Major Axis(m)": 7083131.272910544,
        "Time(s)": 168
    },
    {
        "Altitude(m)": 702783.28567214,
        "Argument of Periapsis(deg)": 0.01013121305547355,
        "Eccentricity": 0.0,
        "Inclination(deg)": 45.0,
        "Latitude(deg)": 7.223987085840707,
        "Longitude(deg)": 46.55773296783198,
        "Mean Anomaly(deg)": 10.258492702232953,
        "RAAN(deg)": 139.99043643101876,
        "Satellite Name": "Constellation 1 616",
        "Satellite Number": 616,
        "Semi-Major Axis(m)": 7083131.272910544,
        "Time(s)": 169
    },
    {
        "Altitude(m)": 702781.1681758963,
        "Argument of Periapsis(deg)": 0.010191161061718957,
        "Eccentricity": 0.0,
        "Inclination(deg)": 45.0,
        "Latitude(deg)": 7.266858965954541,
        "Longitude(deg)": 46.59717948631124,
        "Mean Anomaly(deg)": 10.31919384248284,
        "RAAN(deg)": 139.99037984185316,
        "Satellite Name": "Constellation 1 616",
        "Satellite Number": 616,
        "Semi-Major Axis(m)": 7083131.272910544,
        "Time(s)": 170
    }
]